CSS (TIANHE)            
1 48274U 21035A   23270.67357605  .00023291  00000+0  25089-3 0  9992
2 48274  41.4727 252.2564 0008284 131.1427 229.0129 15.63104802137858
